{"type": "FeatureCollection", "features": [ {"type": "Feature", "properties": {"norad_id": 35905, "name": "COSMOS 2251 DEB", "group": "cosmos-2251-debris", "lat": 57.11074710784342, "lon": -103.89652289634192, "alt_km": 584.7530984431796, "timestamp": "2025-12-03T08:58:46.399889+00:00", "meta": {"OBJECT_NAME": "COSMOS 2251 DEB", "OBJECT_ID": "1993-036AUU", "EPOCH": "2025-12-02T02:16:20.919648", "MEAN_MOTION": 14.98770936, "ECCENTRICITY": 0.00910827, "INCLINATION": 74.0327, "RA_OF_ASC_NODE": 232.4178, "ARG_OF_PERICENTER": 314.9796, "MEAN_ANOMALY": 44.4031, "EPHEMERIS_TYPE": 0, "CLASSIFICATION_TYPE": "U", "NORAD_CAT_ID": 35905, "ELEMENT_SET_NO": 999, "REV_AT_EPOCH": 88423, "BSTAR": 0.00066760641, "MEAN_MOTION_DOT": 8.736e-05, "MEAN_MOTION_DDOT": 0}, "tle": {"line1": "1 35905U 93036AUU 25336.09468657  .00008736  00000+0  66761-3 0  9999", "line2": "2 35905  74.0327 232.4178 0091082 314.9796  44.4031 14.98770936884238"}}, "geometry": {"type": "Point", "coordinates": [-103.89652289634192, 57.11074710784342]}}, {"type": "Feature", "properties": {"norad_id": 35959, "name": "COSMOS 2251 DEB", "group": "cosmos-2251-debris", "lat": -32.84535958402398, "lon": 159.86422825725532, "alt_km": 798.0751774244018, "timestamp": "2025-12-03T08:58:46.399900+00:00", "meta": {"OBJECT_NAME": "COSMOS 2251 DEB", "OBJECT_ID": "1993-036AUZ", "EPOCH": "2025-11-30T16:21:59.984064", "MEAN_MOTION": 14.34121846, "ECCENTRICITY": 0.00211433, "INCLINATION": 74.0322, "RA_OF_ASC_NODE": 334.1387, "ARG_OF_PERICENTER": 58.5028, "MEAN_ANOMALY": 301.8186, "EPHEMERIS_TYPE": 0, "CLASSIFICATION_TYPE": "U", "NORAD_CAT_ID": 35959, "ELEMENT_SET_NO": 999, "REV_AT_EPOCH": 84755, "BSTAR": 0.00012517594, "MEAN_MOTION_DOT": 3.25e-06, "MEAN_MOTION_DDOT": 0}, "tle": {"line1": "1 35959U 93036AUZ 25334.68194426  .00000325  00000+0  12518-3 0  9998", "line2": "2 35959  74.0322 334.1387 0021143  58.5028 301.8186 14.34121846847559"}}, "geometry": {"type": "Point", "coordinates": [159.86422825725532, -32.84535958402398]}}, {"type": "Feature", "properties": {"norad_id": 35961, "name": "COSMOS 2251 DEB", "group": "cosmos-2251-debris", "lat": 31.034299427992313, "lon": -129.35834328437352, "alt_km": 948.7060293470795, "timestamp": "2025-12-03T08:58:46.399910+00:00", "meta": {"OBJECT_NAME": "COSMOS 2251 DEB", "OBJECT_ID": "1993-036AVB", "EPOCH": "2025-11-29T09:08:47.173056", "MEAN_MOTION": 14.05319505, "ECCENTRICITY": 0.01924432, "INCLINATION": 73.9254, "RA_OF_ASC_NODE": 227.671, "ARG_OF_PERICENTER": 163.9834, "MEAN_ANOMALY": 196.7506, "EPHEMERIS_TYPE": 0, "CLASSIFICATION_TYPE": "U", "NORAD_CAT_ID": 35961, "ELEMENT_SET_NO": 999, "REV_AT_EPOCH": 62494, "BSTAR": 0.00062484461, "MEAN_MOTION_DOT": 1.171e-05, "MEAN_MOTION_DDOT": 0}, "tle": {"line1": "1 35961U 93036AVB 25333.38110154  .00001171  00000+0  62484-3 0  9990", "line2": "2 35961  73.9254 227.6710 0192443 163.9834 196.7506 14.05319505624940"}}, "geometry": {"type": "Point", "coordinates": [-129.35834328437352, 31.034299427992313]}}, {"type": "Feature", "properties": {"norad_id": 35979, "name": "COSMOS 2251 DEB", "group": "cosmos-2251-debris", "lat": 61.92938857921622, "lon": 44.18174559335325, "alt_km": 634.8344725577726, "timestamp": "2025-12-03T08:58:46.399920+00:00", "meta": {"OBJECT_NAME": "COSMOS 2251 DEB", "OBJECT_ID": "1993-036AVV", "EPOCH": "2025-12-02T01:36:18.345600", "MEAN_MOTION": 14.74402134, "ECCENTRICITY": 0.00586885, "INCLINATION": 74.0119, "RA_OF_ASC_NODE": 259.2592, "ARG_OF_PERICENTER": 33.9207, "MEAN_ANOMALY": 342.7936, "EPHEMERIS_TYPE": 0, "CLASSIFICATION_TYPE": "U", "NORAD_CAT_ID": 35979, "ELEMENT_SET_NO": 999, "REV_AT_EPOCH": 88476, "BSTAR": 0.001279454, "MEAN_MOTION_DOT": 8.705e-05, "MEAN_MOTION_DDOT": 0}, "tle": {"line1": "1 35979U 93036AVV 25336.06687900  .00008705  00000+0  12795-2 0  9994", "line2": "2 35979  74.0119 259.2592 0058688  33.9207 342.7936 14.74402134884767"}}, "geometry": {"type": "Point", "coordinates": [44.18174559335325, 61.92938857921622]}}, {"type": "Feature", "properties": {"norad_id": 35980, "name": "COSMOS 2251 DEB", "group": "cosmos-2251-debris", "lat": 30.81206162942922, "lon": -49.24611302446114, "alt_km": 717.7827868551103, "timestamp": "2025-12-03T08:58:46.399931+00:00", "meta": {"OBJECT_NAME": "COSMOS 2251 DEB", "OBJECT_ID": "1993-036AVW", "EPOCH": "2025-12-02T19:08:08.015136", "MEAN_MOTION": 14.59062146, "ECCENTRICITY": 0.0053771, "INCLINATION": 73.91, "RA_OF_ASC_NODE": 141.7735, "ARG_OF_PERICENTER": 277.5645, "MEAN_ANOMALY": 81.9413, "EPHEMERIS_TYPE": 0, "CLASSIFICATION_TYPE": "U", "NORAD_CAT_ID": 35980, "ELEMENT_SET_NO": 999, "REV_AT_EPOCH": 61341, "BSTAR": 0.0020366, "MEAN_MOTION_DOT": 9.752e-05, "MEAN_MOTION_DDOT": 0}, "tle": {"line1": "1 35980U 93036AVW 25336.79731499  .00009752  00000+0  20366-2 0  9995", "line2": "2 35980  73.9100 141.7735 0053771 277.5645  81.9413 14.59062146613413"}}, "geometry": {"type": "Point", "coordinates": [-49.24611302446114, 30.81206162942922]}}, {"type": "Feature", "properties": {"norad_id": 35982, "name": "COSMOS 2251 DEB", "group": "cosmos-2251-debris", "lat": -44.63270632162956, "lon": -11.532987741669226, "alt_km": 713.9822344718395, "timestamp": "2025-12-03T08:58:46.399949+00:00", "meta": {"OBJECT_NAME": "COSMOS 2251 DEB", "OBJECT_ID": "1993-036AVY", "EPOCH": "2025-12-02T08:34:16.837248", "MEAN_MOTION": 14.62661331, "ECCENTRICITY": 0.00640231, "INCLINATION": 74.0586, "RA_OF_ASC_NODE": 6.8033, "ARG_OF_PERICENTER": 76.2999, "MEAN_ANOMALY": 284.5285, "EPHEMERIS_TYPE": 0, "CLASSIFICATION_TYPE": "U", "NORAD_CAT_ID": 35982, "ELEMENT_SET_NO": 999, "REV_AT_EPOCH": 86014, "BSTAR": 0.00060971917, "MEAN_MOTION_DOT": 3.165e-05, "MEAN_MOTION_DDOT": 0}, "tle": {"line1": "1 35982U 93036AVY 25336.35713932  .00003165  00000+0  60972-3 0  9991", "line2": "2 35982  74.0586   6.8033 0064023  76.2999 284.5285 14.62661331860142"}}, "geometry": {"type": "Point", "coordinates": [-11.532987741669226, -44.63270632162956]}}, {"type": "Feature", "properties": {"norad_id": 35987, "name": "COSMOS 2251 DEB", "group": "cosmos-2251-debris", "lat": -63.297507843566095, "lon": -161.1407711052895, "alt_km": 778.6464979795755, "timestamp": "2025-12-03T08:58:46.399959+00:00", "meta": {"OBJECT_NAME": "COSMOS 2251 DEB", "OBJECT_ID": "1993-036AWD", "EPOCH": "2025-12-01T10:54:45.006048", "MEAN_MOTION": 14.43015331, "ECCENTRICITY": 0.00459843, "INCLINATION": 73.9994, "RA_OF_ASC_NODE": 347.6475, "ARG_OF_PERICENTER": 116.8368, "MEAN_ANOMALY": 243.7501, "EPHEMERIS_TYPE": 0, "CLASSIFICATION_TYPE": "U", "NORAD_CAT_ID": 35987, "ELEMENT_SET_NO": 999, "REV_AT_EPOCH": 60902, "BSTAR": 0.00096989757, "MEAN_MOTION_DOT": 3.265e-05, "MEAN_MOTION_DDOT": 0}, "tle": {"line1": "1 35987U 93036AWD 25335.45468757  .00003265  00000+0  96990-3 0  9998", "line2": "2 35987  73.9994 347.6475 0045984 116.8368 243.7501 14.43015331609028"}}, "geometry": {"type": "Point", "coordinates": [-161.1407711052895, -63.297507843566095]}}, {"type": "Feature", "properties": {"norad_id": 35989, "name": "COSMOS 2251 DEB", "group": "cosmos-2251-debris", "lat": 42.84929340506281, "lon": 105.66225127972301, "alt_km": 769.3382983707115, "timestamp": "2025-12-03T08:58:46.399970+00:00", "meta": {"OBJECT_NAME": "COSMOS 2251 DEB", "OBJECT_ID": "1993-036AWF", "EPOCH": "2025-11-27T07:00:06.233184", "MEAN_MOTION": 14.37066498, "ECCENTRICITY": 0.00214096, "INCLINATION": 74.0374, "RA_OF_ASC_NODE": 312.2392, "ARG_OF_PERICENTER": 38.1471, "MEAN_ANOMALY": 322.1192, "EPHEMERIS_TYPE": 0, "CLASSIFICATION_TYPE": "U", "NORAD_CAT_ID": 35989, "ELEMENT_SET_NO": 999, "REV_AT_EPOCH": 86957, "BSTAR": 0.00024367588, "MEAN_MOTION_DOT": 6.99e-06, "MEAN_MOTION_DDOT": 0}, "tle": {"line1": "1 35989U 93036AWF 25331.29173881  .00000699  00000+0  24368-3 0  9997", "line2": "2 35989  74.0374 312.2392 0021409  38.1471 322.1192 14.37066498869576"}}, "geometry": {"type": "Point", "coordinates": [105.66225127972301, 42.84929340506281]}}, {"type": "Feature", "properties": {"norad_id": 35993, "name": "COSMOS 2251 DEB", "group": "cosmos-2251-debris", "lat": 33.846482087350935, "lon": 159.76739387314444, "alt_km": 657.5653410460009, "timestamp": "2025-12-03T08:58:46.399980+00:00", "meta": {"OBJECT_NAME": "COSMOS 2251 DEB", "OBJECT_ID": "1993-036AWK", "EPOCH": "2025-11-27T19:35:01.348512", "MEAN_MOTION": 14.65130544, "ECCENTRICITY": 0.00298008, "INCLINATION": 74.0156, "RA_OF_ASC_NODE": 1.5524, "ARG_OF_PERICENTER": 195.1174, "MEAN_ANOMALY": 164.9107, "EPHEMERIS_TYPE": 0, "CLASSIFICATION_TYPE": "U", "NORAD_CAT_ID": 35993, "ELEMENT_SET_NO": 999, "REV_AT_EPOCH": 60224, "BSTAR": 0.00071132597, "MEAN_MOTION_DOT": 3.818e-05, "MEAN_MOTION_DDOT": 0}, "tle": {"line1": "1 35993U 93036AWK 25331.81598783  .00003818  00000+0  71133-3 0  9990", "line2": "2 35993  74.0156   1.5524 0029800 195.1174 164.9107 14.65130544602243"}}, "geometry": {"type": "Point", "coordinates": [159.76739387314444, 33.846482087350935]}}, {"type": "Feature", "properties": {"norad_id": 35996, "name": "COSMOS 2251 DEB", "group": "cosmos-2251-debris", "lat": -17.08751206766956, "lon": -52.19577923771401, "alt_km": 485.790657409304, "timestamp": "2025-12-03T08:58:46.399990+00:00", "meta": {"OBJECT_NAME": "COSMOS 2251 DEB", "OBJECT_ID": "1993-036AWN", "EPOCH": "2025-12-02T16:11:16.473408", "MEAN_MOTION": 15.08726823, "ECCENTRICITY": 0.0089413, "INCLINATION": 74.0129, "RA_OF_ASC_NODE": 124.191, "ARG_OF_PERICENTER": 217.4013, "MEAN_ANOMALY": 142.0936, "EPHEMERIS_TYPE": 0, "CLASSIFICATION_TYPE": "U", "NORAD_CAT_ID": 35996, "ELEMENT_SET_NO": 999, "REV_AT_EPOCH": 72174, "BSTAR": 0.0010209, "MEAN_MOTION_DOT": 0.00017591, "MEAN_MOTION_DDOT": 0}, "tle": {"line1": "1 35996U 93036AWN 25336.67449622  .00017591  00000+0  10209-2 0  9998", "line2": "2 35996  74.0129 124.1910 0089413 217.4013 142.0936 15.08726823721746"}}, "geometry": {"type": "Point", "coordinates": [-52.19577923771401, -17.08751206766956]}}]}